QIANFAN-57              
1 62787U 25016C   25359.93458305  .00000182  00000+0  26326-3 0  9997
2 62787  88.9788 101.8395 0002543 111.6918 248.4505 13.50980645 48986
QIANFAN-58              
1 62788U 25016D   25359.90574586  .00000183  00000+0  26572-3 0  9999
2 62788  88.9757 101.6701 0012194 307.4889  52.5153 13.50982418 49026
QIANFAN-59              
1 62789U 25016E   25359.93038938  .00000174  00000+0  25145-3 0  9994
2 62789  88.9781 101.7443 0012603 311.7119  48.2953 13.50983989 49021
QIANFAN-60              
1 62790U 25016F   25359.88934525  .00000182  00000+0  26282-3 0  9999
2 62790  88.9762 101.7175 0014097 307.4748  52.5120 13.50987859 49005
QIANFAN-61              
1 62791U 25016G   25359.92216738  .00000170  00000+0  24418-3 0  9990
2 62791  88.9829 101.8859 0013026 306.9682  53.0276 13.50984270 49026
QIANFAN-62              
1 62792U 25016H   25359.92631310  .00000173  00000+0  24964-3 0  9997
2 62792  88.9776 101.7469 0014421 307.1148  52.8684 13.50980890 49017
QIANFAN-63              
1 62793U 25016J   25359.87689643  .00000181  00000+0  26141-3 0  9992
2 62793  88.9782 101.7044 0014529 313.1681  46.8255 13.50987618 49047
QIANFAN-64              
1 62794U 25016K   25359.91805333  .00000180  00000+0  26039-3 0  9999
2 62794  88.9769 101.6723 0012396 305.5178  54.4816 13.50982593 49047
